{
  "type": "FeatureCollection",
  "features": [
    {
      "type": "Feature",
      "properties": {
        "norad_id": 37836,
        "name": "EUTELSAT 16A",
        "group": "eutelsat",
        "lat": -0.055051778015809245,
        "lon": -136.69359014498121,
        "alt_km": 35771.3946767603,
        "timestamp": "2025-12-26T07:29:18.130779+00:00",
        "meta_object_name": "EUTELSAT 16A",
        "meta_object_id": "2011-057A",
        "meta_epoch": "2025-12-25T20:22:38.549856",
        "meta_mean_motion": 1.00271455,
        "meta_eccentricity": 0.00058355,
        "meta_inclination": 0.0557,
        "meta_ra_of_asc_node": 351.1357,
        "meta_arg_of_pericenter": 285.5642,
        "meta_mean_anomaly": 139.5467,
        "meta_ephemeris_type": 0,
        "meta_classification_type": "U",
        "meta_norad_cat_id": 37836,
        "meta_element_set_no": 999,
        "meta_rev_at_epoch": 558,
        "meta_bstar": 0,
        "meta_mean_motion_dot": 1.25e-06,
        "meta_mean_motion_ddot": 0,
        "tle_line1": "1 37836U 11057A   25359.84905729  .00000125  00000+0  00000+0 0  9995",
        "tle_line2": "2 37836   0.0557 351.1357 0005835 285.5642 139.5467  1.00271455  5582"
      },
      "geometry": {
        "type": "Point",
        "coordinates": [
          -136.69359014498121,
          -0.055051778015809245
        ]
      }
    },
    {
      "type": "Feature",
      "properties": {
        "norad_id": 38992,
        "name": "EUTELSAT 21B",
        "group": "eutelsat",
        "lat": -0.06730554074754308,
        "lon": -131.0754504435701,
        "alt_km": 35777.61678728839,
        "timestamp": "2025-12-26T07:29:18.130790+00:00",
        "meta_object_name": "EUTELSAT 21B",
        "meta_object_id": "2012-062B",
        "meta_epoch": "2025-12-25T21:06:44.556768",
        "meta_mean_motion": 1.0027147,
        "meta_eccentricity": 0.00032411,
        "meta_inclination": 0.0652,
        "meta_ra_of_asc_node": 351.6261,
        "meta_arg_of_pericenter": 288.9978,
        "meta_mean_anomaly": 152.2714,
        "meta_ephemeris_type": 0,
        "meta_classification_type": "U",
        "meta_norad_cat_id": 38992,
        "meta_element_set_no": 999,
        "meta_rev_at_epoch": 4809,
        "meta_bstar": 0,
        "meta_mean_motion_dot": 1.51e-06,
        "meta_mean_motion_ddot": 0,
        "tle_line1": "1 38992U 12062B   25359.87968237  .00000151  00000+0  00000+0 0  9991",
        "tle_line2": "2 38992   0.0652 351.6261 0003241 288.9978 152.2714  1.00271470 48096"
      },
      "geometry": {
        "type": "Point",
        "coordinates": [
          -131.0754504435701,
          -0.06730554074754308
        ]
      }
    },
    {
      "type": "Feature",
      "properties": {
        "norad_id": 39020,
        "name": "EUTELSAT 70B",
        "group": "eutelsat",
        "lat": -0.07703485226128591,
        "lon": -82.10882746272773,
        "alt_km": 35769.684466739716,
        "timestamp": "2025-12-26T07:29:18.130802+00:00",
        "meta_object_name": "EUTELSAT 70B",
        "meta_object_id": "2012-069A",
        "meta_epoch": "2025-12-25T23:42:02.559168",
        "meta_mean_motion": 1.00272,
        "meta_eccentricity": 0.00041655,
        "meta_inclination": 0.0615,
        "meta_ra_of_asc_node": 349.5588,
        "meta_arg_of_pericenter": 266.2314,
        "meta_mean_anomaly": 264.9553,
        "meta_ephemeris_type": 0,
        "meta_classification_type": "U",
        "meta_norad_cat_id": 39020,
        "meta_element_set_no": 999,
        "meta_rev_at_epoch": 4777,
        "meta_bstar": 0,
        "meta_mean_motion_dot": -2.2e-07,
        "meta_mean_motion_ddot": 0,
        "tle_line1": "1 39020U 12069A   25359.98752962 -.00000022  00000+0  00000+0 0  9997",
        "tle_line2": "2 39020   0.0615 349.5588 0004165 266.2314 264.9553  1.00272000 47771"
      },
      "geometry": {
        "type": "Point",
        "coordinates": [
          -82.10882746272773,
          -0.07703485226128591
        ]
      }
    },
    {
      "type": "Feature",
      "properties": {
        "norad_id": 39122,
        "name": "EUTELSAT 117 WEST A",
        "group": "eutelsat",
        "lat": 0.028512489731644514,
        "lon": 90.58324907680385,
        "alt_km": 35798.050119668005,
        "timestamp": "2025-12-26T07:29:18.130814+00:00",
        "meta_object_name": "EUTELSAT 117 WEST A",
        "meta_object_id": "2013-012A",
        "meta_epoch": "2025-12-25T15:56:10.682592",
        "meta_mean_motion": 1.00270782,
        "meta_eccentricity": 0.00027913,
        "meta_inclination": 0.0176,
        "meta_ra_of_asc_node": 324.0634,
        "meta_arg_of_pericenter": 314.0111,
        "meta_mean_anomaly": 298.594,
        "meta_ephemeris_type": 0,
        "meta_classification_type": "U",
        "meta_norad_cat_id": 39122,
        "meta_element_set_no": 999,
        "meta_rev_at_epoch": 4669,
        "meta_bstar": 0,
        "meta_mean_motion_dot": 9e-08,
        "meta_mean_motion_ddot": 0,
        "tle_line1": "1 39122U 13012A   25359.66401253  .00000009  00000+0  00000+0 0  9992",
        "tle_line2": "2 39122   0.0176 324.0634 0002791 314.0111 298.5940  1.00270782 46694"
      },
      "geometry": {
        "type": "Point",
        "coordinates": [
          90.58324907680385,
          0.028512489731644514
        ]
      }
    },
    {
      "type": "Feature",
      "properties": {
        "norad_id": 39163,
        "name": "EUTELSAT 7B",
        "group": "eutelsat",
        "lat": -0.03507947423910528,
        "lon": -145.67985919746806,
        "alt_km": 35792.01030761026,
        "timestamp": "2025-12-26T07:29:18.130827+00:00",
        "meta_object_name": "EUTELSAT 7B",
        "meta_object_id": "2013-022A",
        "meta_epoch": "2025-12-25T13:05:49.496064",
        "meta_mean_motion": 1.00271702,
        "meta_eccentricity": 0.0004644,
        "meta_inclination": 0.066,
        "meta_ra_of_asc_node": 10.1189,
        "meta_arg_of_pericenter": 312.1563,
        "meta_mean_anomaly": 335.4778,
        "meta_ephemeris_type": 0,
        "meta_classification_type": "U",
        "meta_norad_cat_id": 39163,
        "meta_element_set_no": 999,
        "meta_rev_at_epoch": 4620,
        "meta_bstar": 0,
        "meta_mean_motion_dot": 6.9e-07,
        "meta_mean_motion_ddot": 0,
        "tle_line1": "1 39163U 13022A   25359.54571176  .00000069  00000+0  00000+0 0  9993",
        "tle_line2": "2 39163   0.0660  10.1189 0004644 312.1563 335.4778  1.00271702 46204"
      },
      "geometry": {
        "type": "Point",
        "coordinates": [
          -145.67985919746806,
          -0.03507947423910528
        ]
      }
    },
    {
      "type": "Feature",
      "properties": {
        "norad_id": 39612,
        "name": "EXPRESS-AT1",
        "group": "eutelsat",
        "lat": -0.01726724998931112,
        "lon": -96.6018589466997,
        "alt_km": 35786.00091457916,
        "timestamp": "2025-12-26T07:29:18.130839+00:00",
        "meta_object_name": "EXPRESS-AT1",
        "meta_object_id": "2014-010A",
        "meta_epoch": "2025-12-26T00:53:38.609088",
        "meta_mean_motion": 1.00277986,
        "meta_eccentricity": 0.0001043,
        "meta_inclination": 0.0126,
        "meta_ra_of_asc_node": 298.72,
        "meta_arg_of_pericenter": 212.4189,
        "meta_mean_anomaly": 13.0636,
        "meta_ephemeris_type": 0,
        "meta_classification_type": "U",
        "meta_norad_cat_id": 39612,
        "meta_element_set_no": 999,
        "meta_rev_at_epoch": 4308,
        "meta_bstar": 0,
        "meta_mean_motion_dot": 9.9e-07,
        "meta_mean_motion_ddot": 0,
        "tle_line1": "1 39612U 14010A   25360.03725242  .00000099  00000+0  00000+0 0  9994",
        "tle_line2": "2 39612   0.0126 298.7200 0001043 212.4189  13.0636  1.00277986 43089"
      },
      "geometry": {
        "type": "Point",
        "coordinates": [
          -96.6018589466997,
          -0.01726724998931112
        ]
      }
    },
    {
      "type": "Feature",
      "properties": {
        "norad_id": 39613,
        "name": "EXPRESS-AT2",
        "group": "eutelsat",
        "lat": 0.0034865915912793443,
        "lon": -12.74265898979331,
        "alt_km": 35784.1791947259,
        "timestamp": "2025-12-26T07:29:18.130851+00:00",
        "meta_object_name": "EXPRESS-AT2",
        "meta_object_id": "2014-010B",
        "meta_epoch": "2025-12-25T22:17:29.922720",
        "meta_mean_motion": 1.00271506,
        "meta_eccentricity": 0.0001635,
        "meta_inclination": 0.0128,
        "meta_ra_of_asc_node": 298.6684,
        "meta_arg_of_pericenter": 335.5701,
        "meta_mean_anomaly": 294.6798,
        "meta_ephemeris_type": 0,
        "meta_classification_type": "U",
        "meta_norad_cat_id": 39613,
        "meta_element_set_no": 999,
        "meta_rev_at_epoch": 4276,
        "meta_bstar": 0,
        "meta_mean_motion_dot": -2.59e-06,
        "meta_mean_motion_ddot": 0,
        "tle_line1": "1 39613U 14010B   25359.92881855 -.00000259  00000+0  00000+0 0  9993",
        "tle_line2": "2 39613   0.0128 298.6684 0001635 335.5701 294.6798  1.00271506 42763"
      },
      "geometry": {
        "type": "Point",
        "coordinates": [
          -12.74265898979331,
          0.0034865915912793443
        ]
      }
    }
  ]
}